{
"type": "FeatureCollection",
"name": "nt_boundary",
"crs": { "type": "name", "properties": { "name": "urn:ogc:def:crs:OGC:1.3:CRS84" } },
"features": [
{ "type": "Feature", "properties": { "name": "Northern Territory" }, "geometry": { "type": "MultiPolygon", "coordinates": [ [ [ [ 129.163379030299808, -15.182998104656429 ], [ 129.158949100563831, -15.185587974677063 ], [ 129.162679070340999, -15.182318114651789 ], [ 129.163379030299808, -15.182998104656429 ] ] ], [ [ [ 129.186298878941585, -15.188588334688715 ], [ 129.184668899038257, -15.188248304686759 ], [ 129.183978829078143, -15.185188384664791 ], [ 129.186298878941585, -15.188588334688715 ] ] ], [ [ [ 129.572787246052371, -15.156665294659357 ], [ 129.572497246060749, -15.162765294703467 ], [ 129.570017296201598, -15.166925314730458 ], [ 129.572787246052371, -15.156665294659357 ] ] ], [ [ [ 129.20150838802985, -15.1545995044379 ], [ 129.19949847814965, -15.157629384460392 ], [ 129.198568458204448, -15.156609384453237 ], [ 129.20150838802985, -15.1545995044379 ] ] ], [ [ [ 129.211008237465876, -15.1477997543864 ], [ 129.218808147004211, -15.147199844380554 ], [ 129.21282827735908, -15.152109834417312 ], [ 129.211008237465876, -15.1477997543864 ] ] ], [ [ [ 129.230857886289101, -15.130687014258891 ], [ 129.230947856284104, -15.133067464276165 ], [ 129.230257826324817, -15.132607374272915 ], [ 129.230857886289101, -15.130687014258891 ] ] ], [ [ [ 129.234147776094346, -15.127666464236581 ], [ 129.232497796192007, -15.129126744247374 ], [ 129.231467806252653, -15.127646464236744 ], [ 129.234147776094346, -15.127666464236581 ] ] ], [ [ [ 129.233877716109419, -15.120205064182439 ], [ 129.236887685931777, -15.121025194188071 ], [ 129.236147725975968, -15.12576609422257 ], [ 129.233877716109419, -15.120205064182439 ] ] ], [ [ [ 129.233817636112263, -15.114213934138942 ], [ 129.237087595919235, -15.113673774134675 ], [ 129.234947676045891, -15.117164464160242 ], [ 129.233817636112263, -15.114213934138942 ] ] ], [ [ [ 129.6713295009192, -14.78357388208536 ], [ 129.701419399179457, -14.789153832180764 ], [ 129.732069437381199, -14.806383772366617 ], [ 129.698129509328396, -14.809493712323588 ], [ 129.6713295009192, -14.78357388208536 ] ] ], [ [ [ 130.107774651669331, -13.224045051716573 ], [ 130.101944692070418, -13.19399530147305 ], [ 130.109614581591075, -13.22008507169353 ], [ 130.107774651669331, -13.224045051716573 ] ] ], [ [ [ 130.018485476523836, -13.111206450586057 ], [ 130.026625555993633, -13.149736230897396 ], [ 130.072835063579703, -13.179925641270133 ], [ 130.020445816205921, -13.17980617110155 ], [ 130.018485476523836, -13.111206450586057 ] ] ], [ [ [ 130.600732129926769, -12.699220940020592 ], [ 130.601772199856129, -12.702830990053465 ], [ 130.599702179973491, -12.699670970018254 ], [ 130.600732129926769, -12.699220940020592 ] ] ], [ [ [ 130.622361378975199, -12.684850470033819 ], [ 130.628921848659559, -12.685180130073416 ], [ 130.625241408816294, -12.688460530077194 ], [ 130.622361378975199, -12.684850470033819 ] ] ], [ [ [ 130.357446721754201, -12.661953118519373 ], [ 130.370226721115216, -12.668053118622788 ], [ 130.369086721150552, -12.672113108647979 ], [ 130.357446721754201, -12.661953118519373 ] ] ], [ [ [ 130.520310624439247, -12.576559998668305 ], [ 130.502961815081989, -12.610240708831462 ], [ 130.542252672826464, -12.681181199568034 ], [ 130.539743632788998, -12.709881749769966 ], [ 130.486652735786492, -12.623641238848997 ], [ 130.520310624439247, -12.576559998668305 ] ] ], [ [ [ 130.457554717098503, -12.637741108809537 ], [ 130.456928707206771, -12.622373128691319 ], [ 130.462039726885394, -12.637639118830904 ], [ 130.457554717098503, -12.637741108809537 ] ] ], [ [ [ 130.388856210352827, -12.641473168509373 ], [ 130.370656331324, -12.619443218261026 ], [ 130.393215880239268, -12.621912968383169 ], [ 130.388856210352827, -12.641473168509373 ] ] ], [ [ [ 130.946077883930286, -12.626278111646453 ], [ 130.953677883559322, -12.627618121710206 ], [ 130.95242797355985, -12.635648191761952 ], [ 130.946077883930286, -12.626278111646453 ] ] ], [ [ [ 130.946167824006807, -12.615208001563575 ], [ 130.944337864077994, -12.617358021566917 ], [ 130.943867814125014, -12.613968001538034 ], [ 130.946167824006807, -12.615208001563575 ] ] ], [ [ [ 130.391695620413202, -12.600772858217866 ], [ 130.401835609862246, -12.615122828372533 ], [ 130.385025790721699, -12.602472948199772 ], [ 130.391695620413202, -12.600772858217866 ] ] ], [ [ [ 130.870077807792825, -12.590168050851631 ], [ 130.87019778777227, -12.592308070868564 ], [ 130.869047777821208, -12.593108090866878 ], [ 130.870077807792825, -12.590168050851631 ] ] ], [ [ [ 130.394115500313575, -12.597612798205439 ], [ 130.409524699648671, -12.584032298175844 ], [ 130.414484869342601, -12.598502428307631 ], [ 130.394115500313575, -12.597612798205439 ] ] ], [ [ [ 130.415974649304644, -12.591832288264731 ], [ 130.426883658914647, -12.566161688124401 ], [ 130.434253708493742, -12.580621748268111 ], [ 130.415974649304644, -12.591832288264731 ] ] ], [ [ [ 130.877487787678717, -12.556258080645824 ], [ 130.87782745765557, -12.557277640655796 ], [ 130.877597467665709, -12.557387640655078 ], [ 130.877487787678717, -12.556258080645824 ] ] ], [ [ [ 130.864182058381033, -12.545541020475776 ], [ 130.868331688094258, -12.558671410602507 ], [ 130.86186506837501, -12.562228400586099 ], [ 130.864182058381033, -12.545541020475776 ] ] ], [ [ [ 130.9538171642225, -12.536227191021526 ], [ 130.951397214329035, -12.537247211012133 ], [ 130.951287164338311, -12.536687191007131 ], [ 130.9538171642225, -12.536227191021526 ] ] ], [ [ [ 130.421241709345878, -12.532832127847801 ], [ 130.421912729292075, -12.537331117884699 ], [ 130.418573749442885, -12.53869110787902 ], [ 130.421241709345878, -12.532832127847801 ] ] ], [ [ [ 130.941606634853343, -12.528567150877754 ], [ 130.94344715477169, -12.52788713088554 ], [ 130.942877164789479, -12.529127150890897 ], [ 130.941606634853343, -12.528567150877754 ] ] ], [ [ [ 130.944357134740329, -12.526307120880007 ], [ 130.945276864698741, -12.52607713088473 ], [ 130.94482710471496, -12.526757110886702 ], [ 130.944357134740329, -12.526307120880007 ] ] ], [ [ [ 130.437181738693226, -12.513011117775637 ], [ 130.434202718780455, -12.523641117840945 ], [ 130.429722738995423, -12.522861127813586 ], [ 130.437181738693226, -12.513011117775637 ] ] ], [ [ [ 130.995945505090219, -12.154855428440213 ], [ 130.999755484871827, -12.160945418513784 ], [ 130.996075515044765, -12.160165428481326 ], [ 130.995945505090219, -12.154855428440213 ] ] ], [ [ [ 131.01144533441493, -12.151095358524016 ], [ 131.01225534437225, -12.151885358535887 ], [ 131.010415344452269, -12.152345358525979 ], [ 131.01144533441493, -12.151095358524016 ] ] ], [ [ [ 130.647202732921784, -11.814487113625411 ], [ 130.646805722898648, -11.821441113675595 ], [ 130.645951733006655, -11.809350123579597 ], [ 130.647202732921784, -11.814487113625411 ] ] ], [ [ [ 130.59390178572545, -11.731642372705572 ], [ 130.605759724671145, -11.826991113488793 ], [ 130.313479737773292, -11.770704121649549 ], [ 130.049505769160334, -11.823989111088512 ], [ 130.020528750580439, -11.776352110645426 ], [ 130.073552728294715, -11.764846110721173 ], [ 130.076328738486666, -11.668890110011995 ], [ 130.151158735107714, -11.706910110545977 ], [ 130.202320023102544, -11.649420520299509 ], [ 130.2104347324846, -11.718610120848547 ], [ 130.234175761363986, -11.740507101103113 ], [ 130.220480742236958, -11.670052110522368 ], [ 130.303242738406084, -11.727570111282947 ], [ 130.190921723629543, -11.640336120189383 ], [ 130.195285743906283, -11.517223109282103 ], [ 130.263944750796213, -11.562010109880386 ], [ 130.261324751052598, -11.526573099603947 ], [ 130.148272756037613, -11.481661118847883 ], [ 130.24452475240679, -11.366473108335921 ], [ 130.241491742426177, -11.393735108528979 ], [ 130.249358732065787, -11.401080108614609 ], [ 130.256696731767562, -11.398382108622997 ], [ 130.252184752168915, -11.345599108208834 ], [ 130.338639738670651, -11.317995108354193 ], [ 130.400620755589188, -11.424078109425677 ], [ 130.37622272623716, -11.507581119944152 ], [ 130.464631752132618, -11.576096110870548 ], [ 130.468965721493078, -11.666717121573727 ], [ 130.553452737705726, -11.691134122184716 ], [ 130.59390178572545, -11.731642372705572 ] ] ], [ [ [ 130.6140613148265, -11.735351972843688 ], [ 130.611761374920349, -11.736472002839479 ], [ 130.61085139496393, -11.73578202282927 ], [ 130.6140613148265, -11.735351972843688 ] ] ], [ [ [ 130.168420024916315, -11.554341349463463 ], [ 130.168420024912621, -11.555351349471032 ], [ 130.168069984928394, -11.555131349468143 ], [ 130.168420024916315, -11.554341349463463 ] ] ], [ [ [ 130.495394020392098, -11.65840466164139 ], [ 130.384064756646552, -11.345995098763321 ], [ 130.409989715753341, -11.305187118573301 ], [ 130.363279717955692, -11.248154117934989 ], [ 130.398315746887647, -11.165446107467636 ], [ 130.49816871226389, -11.268952108720457 ], [ 130.602416727775875, -11.298259109481934 ], [ 130.554839739415996, -11.361816119709019 ], [ 130.569274728614943, -11.398028110057941 ], [ 130.656935715290643, -11.335603120065587 ], [ 130.710936732108053, -11.48868510153439 ], [ 130.810361707636162, -11.527370102435373 ], [ 130.696653733086748, -11.426610110981429 ], [ 130.704817722993482, -11.384960120714345 ], [ 130.89934972534877, -11.309304111363625 ], [ 131.032546719372306, -11.367234102734653 ], [ 131.148335445463061, -11.249861242714067 ], [ 131.209436702162122, -11.343825113912862 ], [ 131.204309693259603, -11.236533103054519 ], [ 131.276283710689853, -11.189739113285865 ], [ 131.30330768885284, -11.273739124153144 ], [ 131.437110703375907, -11.266914125270409 ], [ 131.465598691077417, -11.386017126439594 ], [ 131.522971688594538, -11.39425012703553 ], [ 131.543693687152825, -11.452910127680139 ], [ 131.461448680047084, -11.514028117379317 ], [ 131.468651698839039, -11.609403128173602 ], [ 131.38027370286315, -11.583696117181294 ], [ 131.28130669574719, -11.740056117520291 ], [ 130.952818708600262, -11.940328106510483 ], [ 130.862456723197852, -11.854871115249651 ], [ 130.687164721274911, -11.796534113719606 ], [ 130.586655736273002, -11.689813112351137 ], [ 130.495394020392098, -11.65840466164139 ] ] ], [ [ [ 130.409577745210839, -11.424153109467158 ], [ 130.406617735325227, -11.42639110947044 ], [ 130.408463725267779, -11.422043109446161 ], [ 130.409577745210839, -11.424153109467158 ] ] ], [ [ [ 130.570724728742647, -11.363250109803168 ], [ 130.567870718867169, -11.362343109781266 ], [ 130.570281718772378, -11.361191109785288 ], [ 130.570724728742647, -11.363250109803168 ] ] ], [ [ [ 130.656401715397891, -11.320961109951925 ], [ 130.665556724988448, -11.325683100039493 ], [ 130.662214705115588, -11.327808110036569 ], [ 130.656401715397891, -11.320961109951925 ] ] ], [ [ [ 132.622727622756798, -12.064983145208922 ], [ 132.655331203897163, -11.889801514319485 ], [ 132.58045963867005, -11.787522142463724 ], [ 132.644850636745616, -11.727995132915478 ], [ 132.499588633699773, -11.680402120513866 ], [ 132.505752654050696, -11.636704120260115 ], [ 132.597182629878944, -11.654180131666321 ], [ 132.497466636250692, -11.50538412913026 ], [ 132.526976635522487, -11.468718129250995 ], [ 132.237885657866173, -11.455969125351194 ], [ 132.078951673654331, -11.530265123987933 ], [ 132.034717656102686, -11.482618113101781 ], [ 132.060076645640379, -11.432200123010253 ], [ 131.940265661082009, -11.396936121362666 ], [ 131.984942679438745, -11.377544131719297 ], [ 131.918521662426315, -11.358998120827961 ], [ 131.94360669182683, -11.320269130810573 ], [ 131.763875689331229, -11.31679311883525 ], [ 131.79498766856139, -11.268693118793246 ], [ 131.856235695942246, -11.276629119510487 ], [ 131.815967688319063, -11.211646118578015 ], [ 131.880862675389665, -11.235199109460465 ], [ 131.876178676043821, -11.194053119092885 ], [ 131.879061666020817, -11.185570129059174 ], [ 131.883243685888431, -11.182115119078388 ], [ 131.884951665815066, -11.182424129099481 ], [ 131.961703681853606, -11.253202130498474 ], [ 131.973116682824326, -11.129370119674386 ], [ 132.011888661235247, -11.130384130125138 ], [ 132.086442676960786, -11.232686131784021 ], [ 132.114488656063514, -11.211830121956998 ], [ 132.100664645187095, -11.329943132702661 ], [ 132.123582663977942, -11.350762123137347 ], [ 132.137635674060192, -11.296923122891441 ], [ 132.145341662674042, -11.382745123646442 ], [ 132.202348679850417, -11.41754712461254 ], [ 132.184709651287079, -11.362309123969 ], [ 132.237382649376912, -11.340097134450421 ], [ 132.17327968225095, -11.323500113529505 ], [ 132.200287672384093, -11.224467123096835 ], [ 132.1356276663019, -11.122361121520443 ], [ 132.187622644079738, -11.131107122220081 ], [ 132.282272658360881, -11.274874124512277 ], [ 132.265731660321592, -11.176177123540146 ], [ 132.333922668327091, -11.116452133948263 ], [ 132.373473664325445, -11.295042125844198 ], [ 132.450987652183159, -11.217876126274399 ], [ 132.501860658523896, -11.330205127833381 ], [ 132.711606616927355, -11.523635142294731 ], [ 132.823588614037931, -11.40416214302566 ], [ 132.895747620662576, -11.427036134301373 ], [ 132.865061633306738, -11.340157133155543 ], [ 132.918268631225288, -11.332244133910272 ], [ 133.075647641584538, -11.520305147864164 ], [ 133.156885614924363, -11.710221140673474 ], [ 133.249261590549935, -11.732867132395732 ], [ 133.33986659733236, -11.693982133643495 ], [ 133.316521597026195, -11.767829143817615 ], [ 133.401893603964425, -11.732736145029424 ], [ 133.456214610339998, -11.802470156537433 ], [ 133.534353587721768, -11.7609871376191 ], [ 133.517691596277814, -11.877037138226124 ], [ 133.563391605571439, -11.808440138520519 ], [ 133.630697602096916, -11.837138159987077 ], [ 133.794467577179915, -11.725590152213005 ], [ 133.916399581568641, -11.743379164737419 ], [ 133.941180569931646, -11.771088145448189 ], [ 133.847278593137162, -11.813572153930041 ], [ 133.839146572216578, -11.87696916426998 ], [ 133.91592756796129, -11.92093015612585 ], [ 134.038896573941713, -11.855303168080344 ], [ 134.075822560613972, -11.936505159475486 ], [ 134.131562588945599, -11.900045160338751 ], [ 134.194261553389794, -12.02957317267186 ], [ 134.162339563262123, -12.101045162565919 ], [ 134.182390581618904, -12.135510163258093 ], [ 134.245972562084944, -11.984570163410666 ], [ 134.495574549043852, -12.072652169551755 ], [ 134.748576550785117, -11.949119184364482 ], [ 134.798518546145147, -12.049429176337995 ], [ 134.843455523862872, -12.06124117749963 ], [ 134.855754521565729, -12.132172168357528 ], [ 134.970575525771238, -12.158570171342431 ], [ 135.055842509296838, -12.262296184266514 ], [ 135.14451053594513, -12.237045186280517 ], [ 135.21279352131441, -12.295983188479919 ], [ 135.16121851549218, -12.225533186609896 ], [ 135.342735526752364, -12.246642191432173 ], [ 135.222801493655595, -12.190008197889119 ], [ 135.366231530049134, -12.085237180753911 ], [ 135.452734515401517, -12.11484619326639 ], [ 135.519567513930639, -12.060525204611185 ], [ 135.569539510602453, -12.100640196276384 ], [ 135.654346488570184, -12.039296198088755 ], [ 135.910477499825419, -11.952537194537907 ], [ 135.654194505261216, -12.156656199026759 ], [ 135.707676488504546, -12.309809191726018 ], [ 135.803928477350894, -12.199124193514072 ], [ 135.885881495128501, -12.149718205426927 ], [ 135.89288547362267, -12.19040820595314 ], [ 136.045074480636657, -12.063069209298181 ], [ 135.928590471118667, -12.221137197217185 ], [ 135.968935477738427, -12.274005208798386 ], [ 136.013475486938574, -12.233588199756873 ], [ 136.06295845424853, -12.24913422131857 ], [ 136.008881485447006, -12.290404200081674 ], [ 135.966570463728601, -12.412506219845049 ], [ 136.014818461999539, -12.396607211108524 ], [ 136.016482449017161, -12.493561211937003 ], [ 136.064240478733751, -12.430100222813914 ], [ 136.220231470086446, -12.478977227808995 ], [ 136.379133450001973, -12.250397220756224 ], [ 136.167159462180848, -12.16354021368714 ], [ 136.415461467629882, -11.95777120949753 ], [ 136.561624472549994, -11.917743233695337 ], [ 136.562326483840991, -11.876736223384384 ], [ 136.580774451783924, -11.915737224278351 ], [ 136.445369455040037, -11.998297220743925 ], [ 136.489940441835131, -12.037558222437534 ], [ 136.531015461514869, -11.991355233337927 ], [ 136.648815437253262, -12.270125219297594 ], [ 136.741770463006191, -12.272261232276552 ], [ 136.76201843339507, -12.233188242609216 ], [ 136.68073643857349, -12.186306239630115 ], [ 136.782083434981303, -12.158596242648882 ], [ 136.926804424410705, -12.280676248351011 ], [ 136.933814432259453, -12.33466124902067 ], [ 136.877771423694043, -12.367130237447983 ], [ 136.870706443520049, -12.381769237336371 ], [ 136.978920439955687, -12.342455240572122 ], [ 136.772655432174048, -12.555569245568583 ], [ 136.793773424668842, -12.451870225408321 ], [ 136.725720456787542, -12.481826243463114 ], [ 136.73852242380994, -12.553782234456868 ], [ 136.696472605393552, -12.564631073199983 ], [ 136.669272985797647, -12.590551352544132 ], [ 136.747280413497464, -12.551017244715494 ], [ 136.762203441931064, -12.57733323540859 ], [ 136.692914433469298, -12.627839233598738 ], [ 136.694455420659864, -12.710604234318334 ], [ 136.606306434404189, -12.722528241619894 ], [ 136.621688439846622, -12.839477233051319 ], [ 136.550612436450876, -12.740064220012982 ], [ 136.542617434670433, -12.806550230300449 ], [ 136.465529439154039, -12.780610227694631 ], [ 136.546813430911612, -12.91613523131706 ], [ 136.63810642542586, -12.950128234465433 ], [ 136.668212432190984, -13.004275235858838 ], [ 136.629363433644954, -13.017007224729209 ], [ 136.620803415676647, -12.967762224060527 ], [ 136.581634435893591, -13.018711223237553 ], [ 136.556290438898912, -12.964029242000565 ], [ 136.45396444332971, -12.979208228940221 ], [ 136.567063415277204, -13.059152223106462 ], [ 136.468768433982405, -13.247129221558131 ], [ 136.439593436361548, -13.217896230420832 ], [ 136.330814428351573, -13.324154227945725 ], [ 136.328097440828657, -13.250181217268205 ], [ 136.388262438617801, -13.226367228911393 ], [ 136.332841427485505, -13.03230821565854 ], [ 136.291460427133671, -13.107269215008868 ], [ 136.316194434283716, -13.159380226176504 ], [ 136.219058449731392, -13.137240213074731 ], [ 136.244678446066416, -13.214440214462604 ], [ 136.162205429277464, -13.241979222223707 ], [ 136.181172427111079, -13.281658223105579 ], [ 136.134144441734151, -13.207174231113866 ], [ 136.145252453854823, -13.120554210746439 ], [ 136.046377462924369, -13.310233209365144 ], [ 136.011922447535881, -13.214360217594477 ], [ 135.96411843745588, -13.295535216863231 ], [ 135.918723460475576, -13.269885205354679 ], [ 135.879905459663775, -13.362128224985511 ], [ 135.926463685674634, -13.417735696759708 ], [ 135.97299340380232, -13.402315277974198 ], [ 135.931254163965264, -13.46680540728963 ], [ 135.859733988360517, -13.44022628503701 ], [ 135.83529562514434, -13.590815735548077 ], [ 135.921646008188844, -13.675964728686402 ], [ 135.879396309285852, -13.712025087767456 ], [ 135.956246354380312, -13.743344340219007 ], [ 136.025915153560248, -13.652043951506492 ], [ 136.083064730527127, -13.655443533204005 ], [ 135.909747909374829, -13.990423840855838 ], [ 135.903598163689622, -14.190502802274548 ], [ 135.702540732133713, -14.271353907248539 ], [ 135.730150499897377, -14.296663678217953 ], [ 135.670331199428233, -14.424363517570947 ], [ 135.619621642245079, -14.423093736164654 ], [ 135.53662250285953, -14.561123764996351 ], [ 135.541062429995748, -14.652703395841403 ], [ 135.382083916846341, -14.725723872162948 ], [ 135.410943691087141, -14.873123034090952 ], [ 135.415493640899598, -14.870583034191837 ], [ 135.431143518878656, -14.910692684924928 ], [ 135.440243478115576, -14.919322585235781 ], [ 135.455823316386784, -14.948952335886052 ], [ 135.470473214944576, -14.970212146446416 ], [ 135.480013114111472, -14.980272056781972 ], [ 136.209760479153488, -15.392864650817902 ], [ 136.317499555218603, -15.625975015931433 ], [ 136.412078199525638, -15.626144378839861 ], [ 136.555465886729024, -15.750384564308478 ], [ 136.644075184009125, -15.672432706502079 ], [ 136.724134968361938, -15.696331509263423 ], [ 136.682675498072513, -15.777902708577891 ], [ 136.646295580643738, -15.767313207328119 ], [ 136.642795600794926, -15.769113277230609 ], [ 136.713775463468608, -15.856793180206678 ], [ 136.70638578135933, -15.931214080560421 ], [ 136.77149527880951, -15.889432712335497 ], [ 136.953254605944636, -15.938320138704627 ], [ 136.912714609801668, -15.899670597050468 ], [ 136.977993837540879, -15.850939218832398 ], [ 137.372612642892364, -16.133334884603375 ], [ 137.729679226817893, -16.232237858205156 ], [ 137.9946539678389, -16.538296570524707 ], [ 137.99906130486545, -25.996849173538216 ], [ 129.000579056375358, -25.998591879552773 ], [ 129.001493399545296, -14.879594592583096 ], [ 129.101299323787032, -14.915049262747726 ], [ 129.108428393425555, -14.989220013280875 ], [ 129.130698902099198, -14.948959422974886 ], [ 129.188927678719409, -14.987159093226058 ], [ 129.200558108077473, -15.122595724205912 ], [ 129.174678629615585, -15.147439104394186 ], [ 129.174928799608836, -15.168358664545813 ], [ 129.157529100647565, -15.18434797466869 ], [ 129.158199210613844, -15.197587644764383 ], [ 129.187748838855782, -15.189398344694135 ], [ 129.186628728917185, -15.173898724582063 ], [ 129.199608348140174, -15.146669354380842 ], [ 129.195638528378709, -15.159289274473458 ], [ 129.231208286274153, -15.175919554587196 ], [ 129.215488247202018, -15.153829854429272 ], [ 129.238097775861092, -15.128726664243874 ], [ 129.24941737519049, -15.091521663972891 ], [ 129.236497575949045, -15.067775883801403 ], [ 129.256047484798614, -15.033938933554287 ], [ 129.256347554781655, -15.061976923758017 ], [ 129.278207293499349, -15.029278913520921 ], [ 129.292977312631734, -15.041748993613103 ], [ 129.30162722212512, -15.036518963576407 ], [ 129.233497386117733, -15.008278803369528 ], [ 129.228436666385988, -14.83935863214235 ], [ 129.482486461614968, -14.941045752982141 ], [ 129.603911554287606, -15.107992584348459 ], [ 129.560202156799221, -15.155122444631326 ], [ 129.563592416563921, -15.179902424816538 ], [ 129.684991589440813, -15.142652674736816 ], [ 129.639831052234371, -15.071202694135978 ], [ 129.663340670932115, -15.028082803860535 ], [ 129.499715450773834, -14.790095611897019 ], [ 129.592125855310087, -14.89099517274607 ], [ 129.577554836286566, -14.798285172048178 ], [ 129.63205966307487, -14.843853382461191 ], [ 129.802549623198757, -14.858003602897828 ], [ 129.902838877651391, -14.773203982529632 ], [ 129.768989475206837, -14.82801369260245 ], [ 129.74948935637147, -14.80968376242652 ], [ 129.776819234831635, -14.795363862380196 ], [ 129.793809073918112, -14.769044002225192 ], [ 129.80403907333033, -14.769404012251345 ], [ 129.809969013005201, -14.763304022220407 ], [ 129.81005898300748, -14.760304052198606 ], [ 129.734409377273096, -14.793953842280244 ], [ 129.672409460894357, -14.7634540019399 ], [ 129.583633796197915, -14.616225170724336 ], [ 129.69238879003899, -14.612774740871346 ], [ 129.779623755264282, -14.539912140511502 ], [ 129.66934875140322, -14.580474910593788 ], [ 129.526279679523952, -14.55227612018626 ], [ 129.48824383171754, -14.503325629789769 ], [ 129.523073369803058, -14.465545449548022 ], [ 129.482683822032243, -14.500935669767221 ], [ 129.481673542137173, -14.449635669391025 ], [ 129.454003693688009, -14.446375829344234 ], [ 129.453194053685763, -14.505045839772645 ], [ 129.451163923817091, -14.483565859614037 ], [ 129.39785384684572, -14.416116149086749 ], [ 129.356774159135568, -14.423616369123733 ], [ 129.367023578597866, -14.338086318502514 ], [ 129.512041430778453, -14.127035497056422 ], [ 129.478991192648579, -14.047915676446152 ], [ 129.535600789573266, -14.058345126576848 ], [ 129.556721258325894, -14.142145247215673 ], [ 129.598106156255056, -14.011046846305375 ], [ 129.640885873889516, -14.047186426632605 ], [ 129.746054008350967, -13.975125526287446 ], [ 129.715533730178009, -13.878865935520132 ], [ 129.794842206153248, -13.789505345020656 ], [ 129.817330695642454, -13.501746582945392 ], [ 129.876709772576817, -13.502413113091061 ], [ 129.897439291674573, -13.440396152684812 ], [ 129.909899510831394, -13.514325713264553 ], [ 130.008378075684647, -13.533324633686759 ], [ 130.190823756810062, -13.394195123285458 ], [ 130.239296734809017, -13.281950132641716 ], [ 130.116184251464887, -13.164125291300412 ], [ 130.129242751540545, -12.966564609876393 ], [ 130.175801559470955, -12.910263609626243 ], [ 130.247130695823898, -12.948363590187672 ], [ 130.338248711623578, -12.890102760139149 ], [ 130.352037281973736, -12.670323498557735 ], [ 130.404116749333383, -12.701463489029518 ], [ 130.393586430027142, -12.662273258686987 ], [ 130.460893956932182, -12.639161948836657 ], [ 130.513583054269333, -12.667751419317279 ], [ 130.501194774594325, -12.717952389629785 ], [ 130.51916522355836, -12.750122669963659 ], [ 130.511424334144806, -12.710242149624627 ], [ 130.535773992929364, -12.719011959817461 ], [ 130.557283011992126, -12.701981379804145 ], [ 130.569924091151535, -12.743762040185691 ], [ 130.62954241837889, -12.727781170396772 ], [ 130.630942818208325, -12.745291440536182 ], [ 130.625203078435931, -12.753531560565447 ], [ 130.624353798350086, -12.775091100722442 ], [ 130.64356250761108, -12.743681290596218 ], [ 130.621461938899188, -12.70519085018144 ], [ 130.689151665371128, -12.751480910921126 ], [ 130.738770233245702, -12.710529950913374 ], [ 130.616471009350988, -12.668700249879397 ], [ 130.585871960722585, -12.684430819827586 ], [ 130.54567101292119, -12.634290269234457 ], [ 130.586511190828531, -12.660440369651061 ], [ 130.607199310165868, -12.604299199343988 ], [ 130.642449878284651, -12.639409529806787 ], [ 130.603949060469404, -12.578378999131267 ], [ 130.568419452086005, -12.590089329024588 ], [ 130.580968702210612, -12.4626285081356 ], [ 130.623248220317635, -12.447747938257699 ], [ 130.578969082628817, -12.404888917690986 ], [ 130.619308590886845, -12.381358727736531 ], [ 130.765156923751391, -12.4373568490211 ], [ 130.727077754970054, -12.526217709455494 ], [ 130.778897132866092, -12.474736999388783 ], [ 130.774407702615207, -12.545577759893972 ], [ 130.729298084515875, -12.581578219885523 ], [ 130.729378164454317, -12.59071830995477 ], [ 130.73203821428902, -12.596918360017646 ], [ 130.778567752330417, -12.559127920022192 ], [ 130.767368162583182, -12.601678380272073 ], [ 130.777138122133607, -12.599578330317684 ], [ 130.779928401871047, -12.619458580484935 ], [ 130.791858421288282, -12.621888570578943 ], [ 130.788207661946529, -12.548267770001431 ], [ 130.828857849758947, -12.588128130563415 ], [ 130.8414775093853, -12.555307720398863 ], [ 130.89522860594883, -12.682458851717444 ], [ 130.882297937101811, -12.6061881810547 ], [ 130.945298033882892, -12.637848251728244 ], [ 130.954707983441779, -12.636968201788044 ], [ 130.966857852917144, -12.629768071820058 ], [ 130.859216978883836, -12.506577070148944 ], [ 130.953857354082288, -12.55511737116438 ], [ 130.955157154209473, -12.529387110979364 ], [ 130.941937074887079, -12.521787070828902 ], [ 130.947286874819866, -12.496476810675436 ], [ 130.930586815674275, -12.486676750484607 ], [ 130.94673671503088, -12.471036560479515 ], [ 130.883899297817891, -12.493192920213531 ], [ 130.916956586520655, -12.457666440171224 ], [ 130.850057599777955, -12.438829869577422 ], [ 130.851929389473469, -12.470520559828746 ], [ 130.84117991995933, -12.473088739777227 ], [ 130.81638642156193, -12.407116519118407 ], [ 130.896015738398063, -12.33004583906458 ], [ 131.018776102413483, -12.371635710245741 ], [ 131.055055900916472, -12.347775400334044 ], [ 131.012985853047383, -12.323265569837643 ], [ 130.994635554917494, -12.186045438666726 ], [ 131.030615103580686, -12.146425288628929 ], [ 131.169064087083285, -12.173204929892323 ], [ 131.222054124218147, -12.227165100729737 ], [ 131.193364505440883, -12.237715150576365 ], [ 131.20598448458918, -12.270375250926305 ], [ 131.232054063423817, -12.266775191112457 ], [ 131.221974263790969, -12.277995261114679 ], [ 131.22233426373711, -12.282395241151008 ], [ 131.225014203591627, -12.285025271192957 ], [ 131.234004003338242, -12.266325201125124 ], [ 131.212324284553006, -12.240175130748874 ], [ 131.250883942962616, -12.220015050913583 ], [ 131.297134552411393, -12.042595079955023 ], [ 131.322773569918581, -12.193415221320878 ], [ 131.426784364414857, -12.275397342865688 ], [ 131.682829002575545, -12.284727335406354 ], [ 131.879267804367601, -12.214537116956528 ], [ 132.06972296460512, -12.303526059821532 ], [ 132.23820104861565, -12.16974686085549 ], [ 132.278471386073477, -12.224197511785345 ], [ 132.353172243017127, -12.198808702556205 ], [ 132.389401740857608, -12.236398853323273 ], [ 132.442021559713396, -12.146459253333111 ], [ 132.622727622756798, -12.064983145208922 ] ] ], [ [ [ 132.360232333080887, -12.170478802430475 ], [ 132.345852283546293, -12.184228632348127 ], [ 132.354072443566224, -12.155218782232119 ], [ 132.360232333080887, -12.170478802430475 ] ] ], [ [ [ 131.020275234069913, -12.14373531853272 ], [ 131.016155294208914, -12.150075338550607 ], [ 131.014775304275787, -12.14950533853623 ], [ 131.020275234069913, -12.14373531853272 ] ] ], [ [ [ 131.002062245088837, -12.117873438204541 ], [ 131.071296651984738, -12.114448888689658 ], [ 131.065144682176964, -12.125522658727281 ], [ 131.002062245088837, -12.117873438204541 ] ] ], [ [ [ 132.339762845205797, -12.081448731476689 ], [ 132.404502342350526, -12.07784920230136 ], [ 132.413911891135825, -12.135349132870312 ], [ 132.382002282575911, -12.135288952445945 ], [ 132.339762845205797, -12.081448731476689 ] ] ], [ [ [ 131.357273189113073, -12.109045280979668 ], [ 131.34428345973862, -12.104685220832948 ], [ 131.351143339506876, -12.096075260827353 ], [ 131.357273189113073, -12.109045280979668 ] ] ], [ [ [ 134.164537553114769, -12.103320162629853 ], [ 134.185182572358315, -12.095681163002565 ], [ 134.171785582579986, -12.113068162858543 ], [ 134.164537553114769, -12.103320162629853 ] ] ], [ [ [ 131.061774892763196, -12.069425158277095 ], [ 131.098354751248905, -12.052735108427301 ], [ 131.127084519879276, -12.06260505872349 ], [ 131.061774892763196, -12.069425158277095 ] ] ], [ [ [ 131.04326501370295, -12.05545519803348 ], [ 131.023355104743246, -12.036185227741019 ], [ 131.064104942931891, -12.034065188026643 ], [ 131.04326501370295, -12.05545519803348 ] ] ], [ [ [ 131.072886952686559, -12.014956167947792 ], [ 131.127146830370606, -12.000947168256378 ], [ 131.135489739887475, -12.014657128425283 ], [ 131.072886952686559, -12.014956167947792 ] ] ], [ [ [ 134.212342554214018, -11.954974162464143 ], [ 134.218751553754174, -11.963125172663961 ], [ 134.208131544239137, -11.962332162433347 ], [ 134.212342554214018, -11.954974162464143 ] ] ], [ [ [ 134.666710815129363, -11.917559402209626 ], [ 134.668330825050361, -11.917899372249723 ], [ 134.667600795064459, -11.918649382238826 ], [ 134.666710815129363, -11.917559402209626 ] ] ], [ [ [ 134.212907575607147, -11.889865171961828 ], [ 134.211686575617108, -11.891861171951815 ], [ 134.211365555685347, -11.889371161925371 ], [ 134.212907575607147, -11.889865171961828 ] ] ], [ [ [ 133.313667598934813, -11.667093142980974 ], [ 133.322349588675394, -11.66073915308082 ], [ 133.320656618634501, -11.667132143101627 ], [ 133.313667598934813, -11.667093142980974 ] ] ], [ [ [ 133.481436592632207, -11.618989145551206 ], [ 133.369102626288878, -11.682110154058826 ], [ 133.348365628213884, -11.624169143244721 ], [ 133.408072616371442, -11.585237133983481 ], [ 133.481436592632207, -11.618989145551206 ] ] ], [ [ [ 132.44874665667669, -11.623525129384191 ], [ 132.451157626661058, -11.617203129367743 ], [ 132.457733656333062, -11.620564129482364 ], [ 132.46328763609165, -11.620832119559434 ], [ 132.463989646047281, -11.621862129576892 ], [ 132.44874665667669, -11.623525129384191 ] ] ], [ [ [ 132.149767649664426, -11.609014135444051 ], [ 132.114092661596146, -11.576193114760427 ], [ 132.127246641185366, -11.564076134825273 ], [ 132.149767649664426, -11.609014135444051 ] ] ], [ [ [ 132.167956659209096, -11.583348125468078 ], [ 132.175142668894807, -11.583955125560761 ], [ 132.17257963895463, -11.587885115559633 ], [ 132.167956659209096, -11.583348125468078 ] ] ], [ [ [ 132.314240662744737, -11.60023612743413 ], [ 132.304413663647068, -11.563662127025522 ], [ 132.324921652533959, -11.581748127429037 ], [ 132.314240662744737, -11.60023612743413 ] ] ], [ [ [ 132.154818669910668, -11.572095125221047 ], [ 132.152621660083895, -11.565734125145299 ], [ 132.155688650005715, -11.561546135150355 ], [ 132.154818669910668, -11.572095125221047 ] ] ], [ [ [ 132.156618670219984, -11.54127912500549 ], [ 132.155398660269952, -11.541428124991787 ], [ 132.155520670276303, -11.540506114986167 ], [ 132.156618670219984, -11.54127912500549 ] ] ], [ [ [ 132.337448642541062, -11.541152117277544 ], [ 132.337006662864042, -11.518321127095435 ], [ 132.335327662967103, -11.515921137055141 ], [ 132.336121642948342, -11.514810117056843 ], [ 132.34014964265819, -11.523775127178318 ], [ 132.337448642541062, -11.541152117277544 ] ] ], [ [ [ 133.399375618475659, -11.489183143078264 ], [ 133.466757606090454, -11.464718144079313 ], [ 133.491216624048519, -11.519766134948823 ], [ 133.383582608093889, -11.547351133257031 ], [ 133.399375618475659, -11.489183143078264 ] ] ], [ [ [ 131.953311669659939, -11.472461112090206 ], [ 131.95939968921391, -11.488712122283966 ], [ 131.948764679835023, -11.473916122050104 ], [ 131.953311669659939, -11.472461112090206 ] ] ], [ [ [ 132.72294362719245, -11.474099132075645 ], [ 132.72694063700078, -11.475655132146226 ], [ 132.725232657036116, -11.47808712214011 ], [ 132.72294362719245, -11.474099132075645 ] ] ], [ [ [ 132.780163616061714, -11.390446132269348 ], [ 132.778713616386369, -11.373136122113214 ], [ 132.800792655130408, -11.395045142612698 ], [ 132.780163616061714, -11.390446132269348 ] ] ], [ [ [ 132.785030636986733, -11.316637121767773 ], [ 132.782283647108301, -11.316122141722907 ], [ 132.785747646965348, -11.316095131774226 ], [ 132.785030636986733, -11.316637121767773 ] ] ], [ [ [ 132.719799630090478, -11.289720120597238 ], [ 132.732753629628348, -11.284890120749099 ], [ 132.731228659521094, -11.296210130814758 ], [ 132.719799630090478, -11.289720120597238 ] ] ], [ [ [ 132.647472664197892, -11.213197128958795 ], [ 132.669826643706614, -11.184417119055302 ], [ 132.682430643131255, -11.188531129268691 ], [ 132.647472664197892, -11.213197128958795 ] ] ], [ [ [ 132.581875667523008, -11.168702127686556 ], [ 132.631543655234367, -11.186834128527261 ], [ 132.588331634556511, -11.356564139234653 ], [ 132.470182642224358, -11.158074116069356 ], [ 132.513470651403679, -11.090888126136617 ], [ 132.462095664200803, -11.038685125034842 ], [ 132.548244640694634, -11.041722126233307 ], [ 132.59487564984812, -10.970153136326724 ], [ 132.581875667523008, -11.168702127686556 ] ] ], [ [ [ 132.863580646492721, -11.139990131574075 ], [ 132.918665643772982, -11.170535132656171 ], [ 132.857035646633335, -11.148026121537285 ], [ 132.863580646492721, -11.139990131574075 ] ] ], [ [ [ 132.19100827412268, -11.116770442150925 ], [ 132.188598254213559, -11.117320432125579 ], [ 132.190268274171217, -11.115300452130482 ], [ 132.19100827412268, -11.116770442150925 ] ] ], [ [ [ 132.290227570279825, -11.102650873281847 ], [ 132.288737570312321, -11.104790863279465 ], [ 132.288287560367309, -11.101970853251933 ], [ 132.290227570279825, -11.102650873281847 ] ] ], [ [ [ 132.993965612036618, -11.088283133189393 ], [ 133.017006641437661, -11.067945143394891 ], [ 133.004845641601747, -11.088030133359155 ], [ 132.993965612036618, -11.088283133189393 ] ] ], [ [ [ 132.856729638224351, -11.046501120741572 ], [ 132.872445627389652, -11.05952113108189 ], [ 132.852625648183391, -11.059765120782748 ], [ 132.856729638224351, -11.046501120741572 ] ] ], [ [ [ 132.458455774573338, -11.022251724858494 ], [ 132.457415784574778, -11.025181734867237 ], [ 132.458435774490198, -11.028351724905518 ], [ 132.45684579460854, -11.02439172485346 ], [ 132.458455774573338, -11.022251724858494 ] ] ], [ [ [ 132.828043630089297, -11.0002691199482 ], [ 132.816278660202158, -11.023558119953059 ], [ 132.818109640263771, -11.014771119912053 ], [ 132.825662630153914, -11.002257129927905 ], [ 132.828043630089297, -11.0002691199482 ] ] ], [ [ [ 132.825570650206032, -10.99910813990199 ], [ 132.819315640921474, -10.968808129572018 ], [ 132.831018640478192, -10.967317129736154 ], [ 132.825570650206032, -10.99910813990199 ] ] ], [ [ [ 133.025184653649717, -10.911790132304827 ], [ 133.043403622998284, -10.907552142561716 ], [ 133.037544643184333, -10.910346132490139 ], [ 133.025184653649717, -10.911790132304827 ] ] ], [ [ [ 135.781119403435156, -15.094460055972924 ], [ 135.787299362977279, -15.097819996173749 ], [ 135.780329393271586, -15.101470006006132 ], [ 135.781119403435156, -15.094460055972924 ] ] ], [ [ [ 135.701670664001568, -14.891761642144147 ], [ 135.725890344305355, -14.834751762367743 ], [ 135.759329972028098, -14.847641513405881 ], [ 135.76409986015048, -14.901761303968531 ], [ 135.701670664001568, -14.891761642144147 ] ] ], [ [ [ 135.49963544148855, -14.681648214951021 ], [ 135.504596411181637, -14.682668215092745 ], [ 135.504657441131826, -14.684298215107278 ], [ 135.500688431369554, -14.683758214996065 ], [ 135.49963544148855, -14.681648214951021 ] ] ], [ [ [ 135.611701799427721, -14.535773556840743 ], [ 135.610421809540981, -14.534303546794032 ], [ 135.61124181951206, -14.533733556811978 ], [ 135.611701799427721, -14.535773556840743 ] ] ], [ [ [ 135.601471900902965, -14.504233646310748 ], [ 135.630011579636005, -14.493583547008747 ], [ 135.612041789915082, -14.518243566711149 ], [ 135.601471900902965, -14.504233646310748 ] ] ], [ [ [ 135.868338608207551, -14.436702173226957 ], [ 135.87597849803376, -14.428542143379902 ], [ 135.87030862810974, -14.4363621432804 ], [ 135.868338608207551, -14.436702173226957 ] ] ], [ [ [ 135.878518428006686, -14.424812113422709 ], [ 135.877248478052479, -14.425602143392748 ], [ 135.878168468049552, -14.424022123406445 ], [ 135.878518428006686, -14.424812113422709 ] ] ], [ [ [ 135.879508448005026, -14.423062103437047 ], [ 135.882158388021651, -14.417682123469909 ], [ 135.881188397959022, -14.421532123472833 ], [ 135.879508448005026, -14.423062103437047 ] ] ], [ [ [ 135.734900429805919, -14.291003678305495 ], [ 135.727940500199594, -14.290443728106906 ], [ 135.735130449882405, -14.287973678287841 ], [ 135.734900429805919, -14.291003678305495 ] ] ], [ [ [ 135.838309416079198, -14.228023230713397 ], [ 135.838539436110608, -14.226553220708222 ], [ 135.83911942605252, -14.227453220731833 ], [ 135.838309416079198, -14.228023230713397 ] ] ], [ [ [ 136.08832576550256, -13.810113134596259 ], [ 136.085665785606295, -13.811233144527069 ], [ 136.089025755504338, -13.808873134606914 ], [ 136.08832576550256, -13.810113134596259 ] ] ], [ [ [ 136.076345446097122, -13.484839231640596 ], [ 136.082205457057739, -13.443803211483552 ], [ 136.108908445054652, -13.465272222440323 ], [ 136.076345446097122, -13.484839231640596 ] ] ], [ [ [ 136.109015435794277, -13.441032232249155 ], [ 136.106160435764338, -13.446680222210393 ], [ 136.105704445917354, -13.442446222163035 ], [ 136.109015435794277, -13.441032232249155 ] ] ], [ [ [ 136.07260744760589, -13.441667221185153 ], [ 136.071021447539351, -13.44645423117707 ], [ 136.070837457694438, -13.441681231133433 ], [ 136.07260744760589, -13.441667221185153 ] ] ], [ [ [ 136.055136441733481, -13.335045229819649 ], [ 136.052694441871409, -13.334511229744074 ], [ 136.054907441782746, -13.333803209803007 ], [ 136.055136441733481, -13.335045229819649 ] ] ], [ [ [ 135.972342436094038, -13.327241227354234 ], [ 135.96204344652611, -13.329933217078963 ], [ 135.961905436795121, -13.321205207005089 ], [ 135.972342436094038, -13.327241227354234 ] ] ], [ [ [ 136.094731450917465, -13.297278220676317 ], [ 136.081563461098284, -13.312752230414079 ], [ 136.077672451751994, -13.297684220179212 ], [ 136.094731450917465, -13.297278220676317 ] ] ], [ [ [ 136.021120469468826, -12.471391221892954 ], [ 136.024553479211846, -12.474696212019051 ], [ 136.01960947924502, -12.481166211927839 ], [ 136.021120469468826, -12.471391221892954 ] ] ], [ [ [ 136.043580463531924, -12.301992211180668 ], [ 136.070573483079244, -12.276551221761553 ], [ 136.04924047298789, -12.311572221422383 ], [ 136.043580463531924, -12.301992211180668 ] ] ], [ [ [ 136.017914467383918, -12.212036199711653 ], [ 136.016251487466576, -12.211764219661344 ], [ 136.017731487474975, -12.209265219684028 ], [ 136.017914467383918, -12.212036199711653 ] ] ], [ [ [ 136.027802468080921, -12.173964199691193 ], [ 136.020279487752049, -12.196187219652399 ], [ 136.026398488364066, -12.166599199591156 ], [ 136.027802468080921, -12.173964199691193 ] ] ], [ [ [ 136.029342468429945, -12.16001319962338 ], [ 136.025940490262599, -12.103825209071877 ], [ 136.035218460167442, -12.093270219255681 ], [ 136.029342468429945, -12.16001319962338 ] ] ], [ [ [ 134.918696540152268, -12.076187179425913 ], [ 134.868953541105128, -12.126959188632139 ], [ 134.847987544077625, -12.044370167473607 ], [ 134.918696540152268, -12.076187179425913 ] ] ], [ [ [ 134.942515529204428, -12.071799179968238 ], [ 134.95949751812006, -12.08494117048596 ], [ 134.956522507969879, -12.096173190502945 ], [ 134.942515529204428, -12.071799179968238 ] ] ], [ [ [ 134.989648526509683, -12.095629181307576 ], [ 134.998040526692847, -12.073654181338187 ], [ 135.002176526010089, -12.093351181596608 ], [ 134.989648526509683, -12.095629181307576 ] ] ], [ [ [ 136.098799487976692, -12.072626220941805 ], [ 136.096801478123894, -12.070675210867577 ], [ 136.099105468119149, -12.067464220909107 ], [ 136.098799487976692, -12.072626220941805 ] ] ], [ [ [ 134.921625520612878, -12.052538179308499 ], [ 134.930277519857526, -12.06740918963639 ], [ 134.917719550680374, -12.05677018924772 ], [ 134.921625520612878, -12.052538179308499 ] ] ], [ [ [ 135.51680551413645, -12.057498194512979 ], [ 135.515477504222105, -12.056522194469618 ], [ 135.518239494107775, -12.056241194541288 ], [ 135.51680551413645, -12.057498194512979 ] ] ], [ [ [ 134.909571541812426, -12.025834168804595 ], [ 134.954827530071128, -12.015538179819474 ], [ 134.990655527957756, -12.036589190861855 ], [ 134.958505518637594, -12.066111190311835 ], [ 134.909571541812426, -12.025834168804595 ] ] ], [ [ [ 134.798275526917593, -12.018238176084271 ], [ 134.829737544923574, -12.042836167026389 ], [ 134.831614514732422, -12.047234177106041 ], [ 134.798275526917593, -12.018238176084271 ] ] ], [ [ [ 134.836985535468358, -12.007628166918927 ], [ 134.862986523734946, -12.031355177728649 ], [ 134.829081525291116, -12.029052166901153 ], [ 134.836985535468358, -12.007628166918927 ] ] ], [ [ [ 135.506328775683869, -12.01818251391764 ], [ 135.506788865507531, -12.023842493975309 ], [ 135.504838775724437, -12.019092513885138 ], [ 135.506328775683869, -12.01818251391764 ] ] ], [ [ [ 135.105781525309737, -11.941839182953839 ], [ 135.055687538091917, -11.918788181524041 ], [ 135.122138524976549, -11.927016183244652 ], [ 135.105781525309737, -11.941839182953839 ] ] ], [ [ [ 135.56622849155508, -12.071721195955083 ], [ 135.594014513710675, -11.950618205734441 ], [ 135.642779500945863, -11.973083197240909 ], [ 135.782182486668006, -11.909522200577062 ], [ 135.889039485061687, -11.805426192743598 ], [ 135.877228487019067, -11.755703212008333 ], [ 135.932098493923121, -11.781136193772253 ], [ 135.782762504785183, -11.974075211112609 ], [ 135.56622849155508, -12.071721195955083 ] ] ], [ [ [ 135.992202489277361, -11.850811216056996 ], [ 135.941696490593529, -11.88021919484529 ], [ 135.982940509749, -11.848400195771029 ], [ 135.992202489277361, -11.850811216056996 ] ] ], [ [ [ 136.040648499206327, -11.783148206910763 ], [ 136.041488478570614, -11.803217207097171 ], [ 136.027816488877193, -11.812645216777156 ], [ 136.040648499206327, -11.783148206910763 ] ] ], [ [ [ 136.075010478037655, -11.772980217827573 ], [ 136.076475478584285, -11.752684217706308 ], [ 136.102598487737112, -11.74373520839692 ], [ 136.075010478037655, -11.772980217827573 ] ] ], [ [ [ 135.941130493975834, -11.766175203909427 ], [ 135.953460484425705, -11.732990203994246 ], [ 135.977187493418626, -11.732795194672887 ], [ 135.941130493975834, -11.766175203909427 ] ] ], [ [ [ 135.307714522127554, -11.729483176386029 ], [ 135.309041512067978, -11.729588186421152 ], [ 135.308156532090038, -11.730183186403051 ], [ 135.307714522127554, -11.729483176386029 ] ] ], [ [ [ 135.152258549547724, -11.699978192186707 ], [ 135.168341538853014, -11.700288172594343 ], [ 135.166921548683661, -11.709143182629338 ], [ 135.152258549547724, -11.699978192186707 ] ] ], [ [ [ 135.999435482932881, -11.717160195186672 ], [ 135.953063506020015, -11.679448203550827 ], [ 136.049314482972193, -11.644715196043943 ], [ 135.999435482932881, -11.717160195186672 ] ] ], [ [ [ 136.053876512890014, -11.641011206146452 ], [ 136.067823482442094, -11.636285216513716 ], [ 136.059462502448525, -11.647878196364244 ], [ 136.053876512890014, -11.641011206146452 ] ] ], [ [ [ 136.080595492836324, -11.605160206634128 ], [ 136.085828503320045, -11.581702206597074 ], [ 136.09025350306473, -11.584017196744929 ], [ 136.080595492836324, -11.605160206634128 ] ] ], [ [ [ 136.57865529339719, -15.510861913135745 ], [ 136.589695188203706, -15.645303584555625 ], [ 136.494756503975992, -15.643534371550892 ], [ 136.525335915902218, -15.530932881614246 ], [ 136.57865529339719, -15.510861913135745 ] ] ], [ [ [ 136.514426356968983, -15.518472261172587 ], [ 136.512316366966928, -15.522303261136884 ], [ 136.508446336953256, -15.529633251073868 ], [ 136.50763633711091, -15.526353261022383 ], [ 136.514426356968983, -15.518472261172587 ] ] ], [ [ [ 136.170997420337329, -13.83807421726428 ], [ 136.168891400379039, -13.840255227219107 ], [ 136.168219440476605, -13.838246237183046 ], [ 136.170997420337329, -13.83807421726428 ] ] ], [ [ [ 136.265051415639647, -13.831807240030733 ], [ 136.267844435362861, -13.83597024014832 ], [ 136.267156405239263, -13.841018220168026 ], [ 136.26406040560525, -13.83453024002268 ], [ 136.265051415639647, -13.831807240030733 ] ] ], [ [ [ 136.369551129914242, -13.840899913277754 ], [ 136.335841771880666, -13.834240342195297 ], [ 136.367091470982956, -13.811530172966846 ], [ 136.369551129914242, -13.840899913277754 ] ] ], [ [ [ 136.292638405785596, -13.781925230464145 ], [ 136.290334415770531, -13.786168240428452 ], [ 136.288366415961576, -13.783354220346354 ], [ 136.292638405785596, -13.781925230464145 ] ] ], [ [ [ 136.57209582159291, -13.773748029023652 ], [ 136.578906401078598, -13.778672229277658 ], [ 136.574298421036929, -13.787168249200921 ], [ 136.57209582159291, -13.773748029023652 ] ] ], [ [ [ 136.179404432094543, -13.767675226950757 ], [ 136.144919413332275, -13.785304226067664 ], [ 136.168479430589656, -13.834180227158225 ], [ 136.106498414334283, -13.817378235189134 ], [ 136.112925046658745, -13.731253124689315 ], [ 136.175361432954958, -13.746765236662927 ], [ 136.19101540452138, -13.670635236519223 ], [ 136.293004428108048, -13.707990239882221 ], [ 136.248267405944318, -13.849849229669879 ], [ 136.200278408275949, -13.855240228274559 ], [ 136.179404432094543, -13.767675226950757 ] ] ], [ [ [ 136.466323398233499, -13.737610235429237 ], [ 136.530937116021676, -13.703448877166903 ], [ 136.519107393738096, -13.791904247508391 ], [ 136.466323398233499, -13.737610235429237 ] ] ], [ [ [ 136.547214394424316, -13.726653247863316 ], [ 136.544727394460978, -13.729439237807764 ], [ 136.544512414472081, -13.72943723780101 ], [ 136.547214394424316, -13.726653247863316 ] ] ], [ [ [ 136.585070412594746, -13.72304624902428 ], [ 136.572467393042274, -13.729150248676547 ], [ 136.56949140336954, -13.723859248540364 ], [ 136.585070412594746, -13.72304624902428 ] ] ], [ [ [ 136.379063393597022, -13.710619232523262 ], [ 136.380803423127162, -13.722486222671856 ], [ 136.37958140315871, -13.723465232642274 ], [ 136.379063393597022, -13.710619232523262 ] ] ], [ [ [ 136.392094403298216, -13.699045232829802 ], [ 136.384281403303703, -13.711396232689383 ], [ 136.380251324050818, -13.694550822430616 ], [ 136.392094403298216, -13.699045232829802 ] ] ], [ [ [ 136.296483428048305, -13.704224229957301 ], [ 136.29340541818047, -13.705050229870768 ], [ 136.297979418029939, -13.702375229987764 ], [ 136.296483428048305, -13.704224229957301 ] ] ], [ [ [ 136.301916417783389, -13.70376722011817 ], [ 136.299367407910665, -13.703887230041923 ], [ 136.300252417920291, -13.70214623005476 ], [ 136.301916417783389, -13.70376722011817 ] ] ], [ [ [ 136.531604406126689, -13.699192237153541 ], [ 136.539798406109156, -13.686882237310996 ], [ 136.537981395802035, -13.699105227352424 ], [ 136.531604406126689, -13.699192237153541 ] ] ], [ [ [ 136.182883425173685, -13.663087236216414 ], [ 136.182791415043255, -13.667426226248441 ], [ 136.179892435299706, -13.663964226134382 ], [ 136.182883425173685, -13.663087236216414 ] ] ], [ [ [ 136.399150915149875, -13.630101022492562 ], [ 136.417770444451577, -13.622250783001984 ], [ 136.420060384007286, -13.632420733154236 ], [ 136.399150915149875, -13.630101022492562 ] ] ], [ [ [ 136.269170412832636, -13.597028228272078 ], [ 136.273289432815062, -13.590928228347334 ], [ 136.275532432608628, -13.593852228438466 ], [ 136.269170412832636, -13.597028228272078 ] ] ], [ [ [ 136.32097241048595, -13.587810239765451 ], [ 136.317769430529808, -13.591567239698371 ], [ 136.31853242060987, -13.587819229691435 ], [ 136.32097241048595, -13.587810239765451 ] ] ], [ [ [ 136.22565241494155, -13.600500216992113 ], [ 136.245641414435028, -13.584179227460885 ], [ 136.2477174238457, -13.599578237646808 ], [ 136.22565241494155, -13.600500216992113 ] ] ], [ [ [ 136.228551428760341, -13.473783226062242 ], [ 136.229939418714679, -13.473006226097588 ], [ 136.229222448716769, -13.474095226084847 ], [ 136.228551428760341, -13.473783226062242 ] ] ], [ [ [ 136.140814450376979, -13.564618224178391 ], [ 136.121344433894848, -13.482581212945586 ], [ 136.127218416894806, -13.375583222260911 ], [ 136.092184449184799, -13.358002211088548 ], [ 136.150655435423374, -13.38528921303171 ], [ 136.205083430639007, -13.451467235181248 ], [ 136.141744433226648, -13.470882223454458 ], [ 136.168097430680632, -13.510138224550479 ], [ 136.140814450376979, -13.564618224178391 ] ] ], [ [ [ 136.243962418355181, -13.461926226429279 ], [ 136.248814438894357, -13.436945236374438 ], [ 136.272450416867201, -13.463631227300073 ], [ 136.243962418355181, -13.461926226429279 ] ] ], [ [ [ 136.22499542003618, -13.438701235674133 ], [ 136.229893429668664, -13.442582215851996 ], [ 136.223119430070682, -13.440614225633331 ], [ 136.22499542003618, -13.438701235674133 ] ] ], [ [ [ 136.371386436500813, -13.318942229140177 ], [ 136.383151406096857, -13.313285219454499 ], [ 136.382617416034918, -13.316056229460461 ], [ 136.371386436500813, -13.318942229140177 ] ] ], [ [ [ 136.174148475487982, -12.371934225575574 ], [ 136.167862475750127, -12.372711225395692 ], [ 136.174683455528509, -12.369818215574359 ], [ 136.174148475487982, -12.371934225575574 ] ] ], [ [ [ 136.120757484102995, -12.168347212358125 ], [ 136.150588461946427, -12.195451213455149 ], [ 136.104415484154657, -12.19070720205897 ], [ 136.120757484102995, -12.168347212358125 ] ] ], [ [ [ 136.158904472017866, -12.180931213583502 ], [ 136.153106482358652, -12.178245213390609 ], [ 136.157515462193885, -12.17719621351233 ], [ 136.158904472017866, -12.180931213583502 ] ] ], [ [ [ 136.128189466622956, -12.074457221818829 ], [ 136.202864485725371, -11.996195213393982 ], [ 136.217970483832033, -12.036265214167232 ], [ 136.313565481561113, -11.974219206532119 ], [ 136.193678463648894, -12.077117203775014 ], [ 136.128189466622956, -12.074457221818829 ] ] ], [ [ [ 136.319210461148174, -11.979555216745801 ], [ 136.32082847095424, -11.983506206826673 ], [ 136.316632471155543, -11.982934206695266 ], [ 136.319210461148174, -11.979555216745801 ] ] ], [ [ [ 136.322827471435289, -11.965278216739565 ], [ 136.314893461829655, -11.963736226487377 ], [ 136.315548451841579, -11.962435206496624 ], [ 136.322827471435289, -11.965278216739565 ] ] ], [ [ [ 136.32381848143649, -11.963852216757981 ], [ 136.332714481625288, -11.945372216877512 ], [ 136.335538481019881, -11.960816217088045 ], [ 136.32381848143649, -11.963852216757981 ] ] ], [ [ [ 136.435893478163308, -11.912810219759804 ], [ 136.458262467163678, -11.913723210455283 ], [ 136.43432145801853, -11.919537229766052 ], [ 136.435893478163308, -11.912810219759804 ] ] ], [ [ [ 136.366878481432195, -11.904087207579808 ], [ 136.431224468954099, -11.894224209465795 ], [ 136.38352547060893, -11.90731122811283 ], [ 136.366878481432195, -11.904087207579808 ] ] ], [ [ [ 136.569970453883315, -11.865182233529589 ], [ 136.580010473342895, -11.868500223870855 ], [ 136.571542473654546, -11.870172223619294 ], [ 136.569970453883315, -11.865182233529589 ] ] ], [ [ [ 136.474986478193387, -11.858580230523879 ], [ 136.497645459269222, -11.79423922070248 ], [ 136.468181447026524, -11.904504220686317 ], [ 136.474986478193387, -11.858580230523879 ] ] ], [ [ [ 136.516001448698518, -11.787489221216843 ], [ 136.534188448773676, -11.760854221565911 ], [ 136.627877455424738, -11.740814224337655 ], [ 136.579004465945559, -11.789209223195336 ], [ 136.516001448698518, -11.787489221216843 ] ] ], [ [ [ 136.13862347807256, -11.681858208953486 ], [ 136.141584466796701, -11.719826199347633 ], [ 136.128003477314422, -11.721837208964644 ], [ 136.13862347807256, -11.681858208953486 ] ] ], [ [ [ 136.204327497330496, -11.614923210353366 ], [ 136.207638486392369, -11.641054200663236 ], [ 136.192821487858367, -11.613505200000592 ], [ 136.204327497330496, -11.614923210353366 ] ] ], [ [ [ 136.264445476113593, -11.572242211800114 ], [ 136.295467484577642, -11.579859222792811 ], [ 136.368372472212172, -11.557720214817429 ], [ 136.332591481667293, -11.623361214265062 ], [ 136.159146476853209, -11.693339219650852 ], [ 136.166211498038052, -11.644481219464099 ], [ 136.230770505270357, -11.645785211389812 ], [ 136.264445476113593, -11.572242211800114 ] ] ], [ [ [ 136.105603503179339, -11.558784196989462 ], [ 136.121534482708569, -11.552268207403388 ], [ 136.108395502798203, -11.567560207142151 ], [ 136.105603503179339, -11.558784196989462 ] ] ], [ [ [ 136.450311459593479, -11.53215021711431 ], [ 136.366602473020009, -11.534234204573108 ], [ 136.473580470685363, -11.46710022730228 ], [ 136.450311459593479, -11.53215021711431 ] ] ], [ [ [ 136.71888528661276, -15.75640192957241 ], [ 136.721195296204201, -15.764201999709071 ], [ 136.717365316712886, -15.756171959521534 ], [ 136.71888528661276, -15.75640192957241 ] ] ], [ [ [ 136.774055033275744, -15.756161271357309 ], [ 136.77254502343385, -15.754241261292936 ], [ 136.772895023428219, -15.753791251300727 ], [ 136.774055033275744, -15.756161271357309 ] ] ], [ [ [ 136.728995087438449, -15.714631539566172 ], [ 136.731795007261269, -15.714861509658483 ], [ 136.731215087253588, -15.716101529649617 ], [ 136.728995087438449, -15.714631539566172 ] ] ], [ [ [ 136.763304507892798, -15.641510720094374 ], [ 136.837154401857532, -15.687260032867485 ], [ 136.787824614850734, -15.686730641251906 ], [ 136.804444742559241, -15.723800662089191 ], [ 136.738465235209787, -15.762651770254843 ], [ 136.763304507892798, -15.641510720094374 ] ] ], [ [ [ 136.728084669759482, -15.648791229012172 ], [ 136.731794709240631, -15.657381219200492 ], [ 136.72585477967246, -15.655221268991401 ], [ 136.728084669759482, -15.648791229012172 ] ] ], [ [ [ 136.719414541504051, -15.613191158448586 ], [ 136.716164541827112, -15.609461188314036 ], [ 136.720584511464779, -15.612291128479157 ], [ 136.719414541504051, -15.613191158448586 ] ] ], [ [ [ 136.646804796088674, -15.606482386064149 ], [ 136.669464655275192, -15.590491816661762 ], [ 136.680954673949117, -15.609161747178973 ], [ 136.646804796088674, -15.606482386064149 ] ] ], [ [ [ 136.677854214764153, -15.590741256932731 ], [ 136.677034644851801, -15.589611686897436 ], [ 136.678554434741358, -15.590181256950729 ], [ 136.677854214764153, -15.590741256932731 ] ] ], [ [ [ 136.65502470641789, -15.582331966134518 ], [ 136.656754696098801, -15.588662026240275 ], [ 136.655124716173617, -15.589332076193481 ], [ 136.65502470641789, -15.582331966134518 ] ] ], [ [ [ 136.657492369455412, -14.304085245990231 ], [ 136.660986369060026, -14.310242246151068 ], [ 136.660222389057481, -14.311550256137203 ], [ 136.657492369455412, -14.304085245990231 ] ] ], [ [ [ 136.412430378087379, -13.828369534493206 ], [ 136.631471398010291, -13.789238251024143 ], [ 136.575044404151356, -13.691435238454138 ], [ 136.63626140111333, -13.68834125036377 ], [ 136.631486400305107, -13.720083230467905 ], [ 136.675461408623363, -13.702720241726853 ], [ 136.678528399205391, -13.680567231646229 ], [ 136.694626399354945, -13.651434251925734 ], [ 136.731247387103707, -13.662738253190922 ], [ 136.681137377184882, -13.737058242184638 ], [ 136.735360823252336, -13.770946024195437 ], [ 136.726860451260791, -13.843185514504158 ], [ 136.823686325937302, -13.851793787705313 ], [ 136.839386848754515, -13.745394517358649 ], [ 136.906944834580628, -13.765593559734681 ], [ 136.857814012072538, -13.912822459310943 ], [ 136.770897325316525, -13.951113216793006 ], [ 136.806367370507161, -14.037674258639885 ], [ 136.698803363331166, -14.122692245853175 ], [ 136.762987367402616, -14.196717238513946 ], [ 136.776308378453933, -14.144831248527488 ], [ 136.863832371487206, -14.211733251916229 ], [ 136.913849381382363, -14.137371262960906 ], [ 136.963196357775075, -14.165502254819659 ], [ 136.933365378001241, -14.2048322541487 ], [ 136.950731343614478, -14.304085255522969 ], [ 136.753847365777318, -14.259042238719791 ], [ 136.648822380168752, -14.29677724565534 ], [ 136.437355994864873, -14.196286268213161 ], [ 136.324708639312774, -14.246097465155691 ], [ 136.44261659694962, -14.123456837792116 ], [ 136.412430378087379, -13.828369534493206 ] ] ], [ [ [ 136.73819089595429, -13.686346393604536 ], [ 136.750010395024987, -13.695946154062494 ], [ 136.733491005881064, -13.695686413528687 ], [ 136.73819089595429, -13.686346393604536 ] ] ], [ [ [ 136.594775323673531, -13.675238248945517 ], [ 136.591615373698517, -13.679388258879239 ], [ 136.591545403862398, -13.674528278837911 ], [ 136.594775323673531, -13.675238248945517 ] ] ], [ [ [ 136.625719402196694, -13.671964229897597 ], [ 136.624392402284144, -13.671377249850824 ], [ 136.626268392207805, -13.670781229905465 ], [ 136.625719402196694, -13.671964229897597 ] ] ], [ [ [ 136.659608410201258, -13.67977525103681 ], [ 136.682313409745916, -13.658572251589804 ], [ 136.665468409736405, -13.684715251263217 ], [ 136.659608410201258, -13.67977525103681 ] ] ], [ [ [ 136.610170403097015, -13.66882022938012 ], [ 136.611269413084273, -13.667504229404274 ], [ 136.610507403078316, -13.668864239391128 ], [ 136.610170403097015, -13.66882022938012 ] ] ], [ [ [ 136.608386393239897, -13.667261239311165 ], [ 136.608507383183706, -13.668773239327157 ], [ 136.607622403230494, -13.668729249298833 ], [ 136.608386393239897, -13.667261239311165 ] ] ], [ [ [ 136.60345640343391, -13.6690282491696 ], [ 136.610018413260974, -13.664097239337277 ], [ 136.600711393488154, -13.671642239103944 ], [ 136.60345640343391, -13.6690282491696 ] ] ], [ [ [ 136.623384382351645, -13.670897249815027 ], [ 136.622454402618217, -13.664287229732347 ], [ 136.629808382346056, -13.661144249940055 ], [ 136.623384382351645, -13.670897249815027 ] ] ], [ [ [ 136.632112411811335, -13.673713240114342 ], [ 136.640305421967469, -13.656370230234621 ], [ 136.642671381443762, -13.668496240407428 ], [ 136.632112411811335, -13.673713240114342 ] ] ], [ [ [ 136.58014572498584, -13.658148508346803 ], [ 136.602795103835092, -13.657908249059176 ], [ 136.576005814886656, -13.667598508292542 ], [ 136.58014572498584, -13.658148508346803 ] ] ], [ [ [ 136.654710401306573, -13.65409323067405 ], [ 136.648851421220854, -13.665685240581135 ], [ 136.643526401789416, -13.656772240340144 ], [ 136.654710401306573, -13.65409323067405 ] ] ], [ [ [ 136.627107382659545, -13.655854249811835 ], [ 136.627565382562551, -13.658074249844232 ], [ 136.626772392671256, -13.656017229802531 ], [ 136.627107382659545, -13.655854249811835 ] ] ], [ [ [ 136.681184400650636, -13.633196241349246 ], [ 136.686143399987571, -13.645474251606558 ], [ 136.680283390225696, -13.647307251434215 ], [ 136.681184400650636, -13.633196241349246 ] ] ], [ [ [ 136.686352650449322, -13.631327361499221 ], [ 136.700342110204048, -13.617327201833637 ], [ 136.701802189539393, -13.634967162022582 ], [ 136.686352650449322, -13.631327361499221 ] ] ], [ [ [ 136.724972413463462, -12.883948236697529 ], [ 136.73029743308976, -12.88754824689736 ], [ 136.723980413443797, -12.885960246682032 ], [ 136.724972413463462, -12.883948236697529 ] ] ], [ [ [ 136.668042416628964, -12.870267224769606 ], [ 136.676557425968753, -12.877972235102856 ], [ 136.667234416613667, -12.8718962247571 ], [ 136.668042416628964, -12.870267224769606 ] ] ], [ [ [ 136.630582428591964, -12.864809223537376 ], [ 136.617993439407428, -12.858217233086153 ], [ 136.626645429122277, -12.854367233328412 ], [ 136.630582428591964, -12.864809223537376 ] ] ], [ [ [ 136.67433857694931, -12.244461489898825 ], [ 136.675028536959104, -12.243221469910678 ], [ 136.674568526939026, -12.244461469906124 ], [ 136.67433857694931, -12.244461489898825 ] ] ], [ [ [ 136.699508466009462, -12.238751190653433 ], [ 136.697328426133112, -12.237961200577541 ], [ 136.700078416005994, -12.238081150666165 ], [ 136.699508466009462, -12.238751190653433 ] ] ], [ [ [ 136.675498477123625, -12.237571479879756 ], [ 136.675498437153152, -12.236671469872451 ], [ 136.676308447090946, -12.237461459904599 ], [ 136.675498477123625, -12.237571479879756 ] ] ], [ [ [ 136.704699456574986, -12.214547230622459 ], [ 136.71251344616698, -12.21633124088631 ], [ 136.701420446175462, -12.231116240652408 ], [ 136.704699456574986, -12.214547230622459 ] ] ], [ [ [ 136.674584438941366, -12.183450229411438 ], [ 136.672479449070266, -12.182379229335892 ], [ 136.67280042907538, -12.181787229341278 ], [ 136.674584438941366, -12.183450229411438 ] ] ], [ [ [ 136.751412446229295, -12.162045231690577 ], [ 136.751016456295247, -12.160586231666016 ], [ 136.752114456243362, -12.160680221702021 ], [ 136.751412446229295, -12.162045231690577 ] ] ], [ [ [ 136.786782448608392, -12.043375241863528 ], [ 136.786156438686589, -12.041850231830949 ], [ 136.787652458603219, -12.042382231883497 ], [ 136.786782448608392, -12.043375241863528 ] ] ], [ [ [ 136.642830471576133, -11.8394962256117 ], [ 136.688484460191006, -11.82182422691498 ], [ 136.667931450548963, -11.837881226393028 ], [ 136.645927461409656, -11.840515225717857 ], [ 136.642830471576133, -11.8394962256117 ] ] ], [ [ [ 136.493233490052148, -11.461417207862912 ], [ 136.626135472801622, -11.20626720993222 ], [ 136.705862490773995, -11.170139232160077 ], [ 136.700246493511457, -11.093035221352572 ], [ 136.737400502529226, -11.077972232413225 ], [ 136.734394473176877, -11.061819212185403 ], [ 136.729557493342526, -11.062607222037492 ], [ 136.713322474241949, -11.054729221455869 ], [ 136.760211463579367, -11.018436212656695 ], [ 136.719853489411491, -11.194679222805693 ], [ 136.667059490544574, -11.225087221377009 ], [ 136.68440745905616, -11.249336232124325 ], [ 136.493233490052148, -11.461417207862912 ] ] ], [ [ [ 136.683034479712859, -11.230862221930181 ], [ 136.681829469733316, -11.231727231899013 ], [ 136.68170747976967, -11.230761211887273 ], [ 136.683034479712859, -11.230862221930181 ] ] ], [ [ [ 136.686956479732373, -11.225406222010115 ], [ 136.685537469739614, -11.226940221977594 ], [ 136.685247469838032, -11.224275221946671 ], [ 136.686956479732373, -11.225406222010115 ] ] ], [ [ [ 136.689046472449036, -11.139365221374835 ], [ 136.685979482793215, -11.132547231221929 ], [ 136.697118482149108, -11.138681221625546 ], [ 136.689046472449036, -11.139365221374835 ] ] ], [ [ [ 136.722707502977698, -11.082072221977928 ], [ 136.727009502953791, -11.077585232078462 ], [ 136.728626482799285, -11.080351222152611 ], [ 136.722707502977698, -11.082072221977928 ] ] ], [ [ [ 136.722523463384135, -11.069854221872355 ], [ 136.73097650308614, -11.068731222132744 ], [ 136.731084463069607, -11.069105212139238 ], [ 136.722523463384135, -11.069854221872355 ] ] ], [ [ [ 136.74383946462558, -11.00616921203275 ], [ 136.747165494019157, -11.020690222257631 ], [ 136.736484494883399, -11.007128221805662 ], [ 136.74383946462558, -11.00616921203275 ] ] ], [ [ [ 137.072393161344621, -15.863078052100393 ], [ 137.067373171834561, -15.857988091890144 ], [ 137.074493111518052, -15.854717992104591 ], [ 137.072393161344621, -15.863078052100393 ] ] ], [ [ [ 136.960313640919765, -15.786219097726228 ], [ 136.957983631053025, -15.786449137650475 ], [ 136.9587936710561, -15.784979107665714 ], [ 136.960313640919765, -15.786219097726228 ] ] ], [ [ [ 136.948793622560885, -15.759669097130891 ], [ 136.940033762808042, -15.76767926690367 ], [ 136.947153642672333, -15.759329117073644 ], [ 136.948793622560885, -15.759669097130891 ] ] ], [ [ [ 137.10549216352797, -15.746947022293009 ], [ 137.105422193374494, -15.751307022325499 ], [ 137.102452223624056, -15.749377052209327 ], [ 137.10549216352797, -15.746947022293009 ] ] ], [ [ [ 136.798454912105228, -15.747280882080958 ], [ 136.797994902207506, -15.745140892048903 ], [ 136.799624882093156, -15.745590872105646 ], [ 136.798454912105228, -15.747280882080958 ] ] ], [ [ [ 137.103552154078187, -15.734976982131478 ], [ 137.102782144047012, -15.737127012122553 ], [ 137.102442114139137, -15.735147012095188 ], [ 137.103552154078187, -15.734976982131478 ] ] ], [ [ [ 136.829624630794768, -15.730730412967526 ], [ 136.801054772642544, -15.727300732006494 ], [ 136.818784681691028, -15.723830502557838 ], [ 136.829624630794768, -15.730730412967526 ] ] ], [ [ [ 137.1026221342143, -15.732766992082254 ], [ 137.101332114269866, -15.73338702204347 ], [ 137.10157213430054, -15.732137012041616 ], [ 137.1026221342143, -15.732766992082254 ] ] ], [ [ [ 136.88177411818512, -15.715219664557099 ], [ 136.883984117928577, -15.718719674657885 ], [ 136.880724158133631, -15.718489704548579 ], [ 136.88177411818512, -15.715219664557099 ] ] ], [ [ [ 136.83069459127384, -15.715150302878314 ], [ 136.828704611260463, -15.718980352843706 ], [ 136.827774591332343, -15.718530342809672 ], [ 136.83069459127384, -15.715150302878314 ] ] ], [ [ [ 136.941463583709321, -15.739789066728539 ], [ 136.919013567109829, -15.681949035522054 ], [ 136.961032986063117, -15.640088366583175 ], [ 136.99073278311252, -15.67286818783599 ], [ 137.008862335094904, -15.586717607754011 ], [ 137.081671978255969, -15.65575698075682 ], [ 137.097722621645005, -15.812037472549902 ], [ 137.039853224321377, -15.835508310782808 ], [ 136.978383072449617, -15.712408477739356 ], [ 136.941463583709321, -15.739789066728539 ] ] ], [ [ [ 136.899513917414794, -15.70665941507424 ], [ 136.897183937531906, -15.707329445002621 ], [ 136.898583897510719, -15.705529415034498 ], [ 136.899513917414794, -15.70665941507424 ] ] ], [ [ [ 136.834974262828723, -15.663199892604117 ], [ 136.831824313034019, -15.66274994249736 ], [ 136.830834283169651, -15.660569932447547 ], [ 136.834974262828723, -15.663199892604117 ] ] ], [ [ [ 137.081091918490017, -15.650226960692969 ], [ 137.08528189823835, -15.650226910834682 ], [ 137.078991998587696, -15.651017010628289 ], [ 137.081091918490017, -15.650226960692969 ] ] ], [ [ [ 136.971282915122288, -15.649248296997904 ], [ 136.975473404854142, -15.649708257141342 ], [ 136.975122864783174, -15.65229827715034 ], [ 136.971282915122288, -15.649248296997904 ] ] ], [ [ [ 137.077362309202158, -15.636667280458417 ], [ 137.079342289058815, -15.637347260530779 ], [ 137.075962319220992, -15.638477260425582 ], [ 137.077362309202158, -15.636667280458417 ] ] ], [ [ [ 136.932953208212979, -15.626968595545064 ], [ 136.929683208337508, -15.628998655452813 ], [ 136.928983218435633, -15.6274086554169 ], [ 136.932953208212979, -15.626968595545064 ] ] ], [ [ [ 136.907553370290913, -15.61123878457814 ], [ 136.910463370052724, -15.613048764688838 ], [ 136.903583410365911, -15.615868834483884 ], [ 136.907553370290913, -15.61123878457814 ] ] ], [ [ [ 136.79133416711511, -15.615360190797048 ], [ 136.791264087976742, -15.590630040597489 ], [ 136.819334045815395, -15.604449741623576 ], [ 136.79133416711511, -15.615360190797048 ] ] ], [ [ [ 136.981932626296583, -15.598217986945381 ], [ 136.978772716180885, -15.606798046908494 ], [ 136.975982696540825, -15.601368056772003 ], [ 136.981932626296583, -15.598217986945381 ] ] ], [ [ [ 136.959562768116456, -15.584648126091198 ], [ 136.962832767860988, -15.586338096213577 ], [ 136.961542787854114, -15.588708116189565 ], [ 136.959562768116456, -15.584648126091198 ] ] ], [ [ [ 136.904903291192909, -15.590118684321848 ], [ 136.845494142755371, -15.647179652821151 ], [ 136.82956404473336, -15.617909672065599 ], [ 136.855843714419336, -15.58180914263909 ], [ 136.841573566648691, -15.542369161855996 ], [ 136.880663065606086, -15.505608552846851 ], [ 136.87375328509188, -15.532028752830392 ], [ 136.904903291192909, -15.590118684321848 ] ] ], [ [ [ 136.84875374514516, -15.573169182337374 ], [ 136.850983705042609, -15.572289162403527 ], [ 136.850843215002755, -15.573669242409935 ], [ 136.84875374514516, -15.573169182337374 ] ] ], [ [ [ 136.833973726645837, -15.555459321711526 ], [ 136.79689399824673, -15.573129850641278 ], [ 136.773574149451122, -15.578620209926287 ], [ 136.833973726645837, -15.555459321711526 ] ] ], [ [ [ 136.884813184262157, -15.536898643233581 ], [ 136.883993214342581, -15.535998673199371 ], [ 136.885163224257099, -15.536448643241531 ], [ 136.884813184262157, -15.536898643233581 ] ] ], [ [ [ 136.954872381418738, -15.499267645252555 ], [ 136.955802401199662, -15.503897655320509 ], [ 136.949512461597863, -15.50320771510585 ], [ 136.954872381418738, -15.499267645252555 ] ] ], [ [ [ 136.920172633700446, -15.493018024051075 ], [ 136.919582683544661, -15.49843806407487 ], [ 136.918652623798863, -15.492788033998922 ], [ 136.920172633700446, -15.493018024051075 ] ] ], [ [ [ 136.951053352043601, -14.348648255892503 ], [ 136.951876351821426, -14.353740255960776 ], [ 136.947818352064758, -14.353070255820903 ], [ 136.951053352043601, -14.348648255892503 ] ] ], [ [ [ 136.928897373130326, -14.351924255185603 ], [ 136.940158352592789, -14.349832255541184 ], [ 136.942340362460214, -14.350242255616719 ], [ 136.928897373130326, -14.351924255185603 ] ] ], [ [ [ 136.81752536996197, -14.328780251345453 ], [ 136.823031359423624, -14.335789251581197 ], [ 136.822102359401242, -14.337909241567969 ], [ 136.81752536996197, -14.328780251345453 ] ] ], [ [ [ 136.954653343687397, -14.295921255587213 ], [ 136.961215353377042, -14.29466925579478 ], [ 136.96359537305031, -14.300353245919554 ], [ 136.954653343687397, -14.295921255587213 ] ] ], [ [ [ 136.970751384067853, -14.260166255833418 ], [ 136.983614383489993, -14.256909256234843 ], [ 136.984713353271644, -14.261462256308102 ], [ 136.970751384067853, -14.260166255833418 ] ] ], [ [ [ 136.962435365083877, -14.243861265425934 ], [ 136.96908836482325, -14.241091255624474 ], [ 136.97149937457138, -14.244596245732808 ], [ 136.962435365083877, -14.243861265425934 ] ] ], [ [ [ 136.955416376176771, -14.223316255027591 ], [ 136.96460237564898, -14.224326255340435 ], [ 136.958742365820115, -14.22843126517909 ], [ 136.955416376176771, -14.223316255027591 ] ] ], [ [ [ 136.793611379390512, -14.090263248649126 ], [ 136.794787379036819, -14.098816238756127 ], [ 136.79402437901814, -14.100553238745352 ], [ 136.793611379390512, -14.090263248649126 ] ] ], [ [ [ 136.911560378004964, -13.659249249027669 ], [ 136.900680377922328, -13.677825248819872 ], [ 136.88696338869326, -13.675817258353204 ], [ 136.911560378004964, -13.659249249027669 ] ] ], [ [ [ 136.926544386981504, -13.666729239581761 ], [ 136.937255386579636, -13.662511239901162 ], [ 136.936615396542862, -13.664522249896278 ], [ 136.926544386981504, -13.666729239581761 ] ] ], [ [ [ 136.926757407666742, -13.64654224942567 ], [ 136.954498386930396, -13.626913250183479 ], [ 136.96073839669279, -13.624596250371344 ], [ 136.963653396415651, -13.628312250497952 ], [ 136.926757407666742, -13.64654224942567 ] ] ], [ [ [ 136.909355426016191, -12.256438227581153 ], [ 136.910591425855955, -12.259531247646834 ], [ 136.907707446074767, -12.25688923753081 ], [ 136.909355426016191, -12.256438227581153 ] ] ], [ [ [ 136.826378443726696, -12.13731622390741 ], [ 136.796990436659144, -12.088422242559158 ], [ 136.825279435893179, -12.074030243357035 ], [ 136.826378443726696, -12.13731622390741 ] ] ], [ [ [ 136.867774443465976, -12.090566224872436 ], [ 136.869254453450452, -12.089090244908656 ], [ 136.868767433378508, -12.09186524491537 ], [ 136.867774443465976, -12.090566224872436 ] ] ], [ [ [ 136.822775469660087, -11.664799229943815 ], [ 136.835974458914279, -11.670453240417334 ], [ 136.809912469885006, -11.67436822960596 ], [ 136.822775469660087, -11.664799229943815 ] ] ] ] } }
]
}
